[{"OBJECT_NAME":"STARLINK-4738","OBJECT_ID":"2022-114B","EPOCH":"2026-03-09T21:22:50.096640","MEAN_MOTION":15.08834472,"ECCENTRICITY":0.00014711,"INCLINATION":53.2177,"RA_OF_ASC_NODE":303.089,"ARG_OF_PERICENTER":78.6071,"MEAN_ANOMALY":281.5086,"EPHEMERIS_TYPE":0,"CLASSIFICATION_TYPE":"U","NORAD_CAT_ID":53819,"ELEMENT_SET_NO":999,"REV_AT_EPOCH":19286,"BSTAR":-2.4494199e-5,"MEAN_MOTION_DOT":-6.78e-6,"MEAN_MOTION_DDOT":0},{"OBJECT_NAME":"PSLV R\/B","OBJECT_ID":"2010-035F","EPOCH":"2026-03-09T21:32:02.806944","MEAN_MOTION":15.11637156,"ECCENTRICITY":0.00120112,"INCLINATION":97.9796,"RA_OF_ASC_NODE":355.2302,"ARG_OF_PERICENTER":197.9598,"MEAN_ANOMALY":162.1208,"EPHEMERIS_TYPE":0,"CLASSIFICATION_TYPE":"U","NORAD_CAT_ID":36800,"ELEMENT_SET_NO":999,"REV_AT_EPOCH":85407,"BSTAR":0.00037264097,"MEAN_MOTION_DOT":6.275e-5,"MEAN_MOTION_DDOT":0}]
